ONEWEB-0645             
1 55809U 23029P   25325.45338887  .00000001  00000+0 -29282-4 0  9994
2 55809  87.9196 346.3260 0002394  97.5147 262.6258 13.19723488131501
ONEWEB-0646             
1 55810U 23029Q   25325.54663966  .00000125  00000+0  27967-3 0  9998
2 55810  87.9199 346.2975 0002092  88.7420 271.3953 13.19725949131502
ONEWEB-0648             
1 55811U 23029R   25325.46307645  .00000232  00000+0  59107-3 0  9999
2 55811  87.8982 331.0886 0002835  94.2953 265.8501 13.14502818132100
ONEWEB-0649             
1 55812U 23029S   25325.57188675  .00000004  00000+0 -23362-4 0  9995
2 55812  87.9205 346.2879 0002312  93.9936 266.1461 13.19728042131547
ONEWEB-0650             
1 55813U 23029T   25325.56716225 -.00002641  00000+0 -66325-2 0  9997
2 55813  87.9198 346.2963 0001680 105.7890 254.3428 13.19703497131517
ONEWEB-0652             
1 55814U 23029U   25325.44403490 -.00000113  00000+0 -33846-3 0  9997
2 55814  87.8981 331.1136 0001655  90.7398 269.3922 13.14502299132079
ONEWEB-0653             
1 55815U 23029V   25325.50429985 -.00000216  00000+0 -61627-3 0  9994
2 55815  87.8982 331.0913 0001772  96.1512 263.9819 13.14502162132110
ONEWEB-0654             
1 55816U 23029W   25325.57565644 -.00000137  00000+0 -40366-3 0  9994
2 55816  87.8983 331.0758 0001460  94.8365 265.2931 13.14502047132149
